STARLINK-1548
1 16054C 20055AD  21326.14600659  .00001132  00000-0  75854-4 0  3260
2 16054  53.0546 318.0782 0001759  55.9539  68.5349 15.06409001    13
